KUIPER_L_00009032-01
1 10620U 22792QO  26075.69964120  .00000000  00000+0  00000-0 0  9997
2 10620  66.0000 279.0000 0000000   0.0000  55.8000 14.82958855    15
KUIPER_L_00009032-02
1 10621U 23122CU  26075.69964120  .00000000  00000+0  00000-0 0  9996
2 10621  66.0000 279.0000 0000000   0.0000  73.8000 14.82958855    16
KUIPER_L_00009032-03
1 10622U 26102QF  26075.69964120  .00000000  00000+0  00000-0 0  9998
2 10622  66.0000 279.0000 0000000   0.0000  91.8000 14.82958855    17
KUIPER_L_00009032-04
1 10623U 26041XZ  26075.69964120  .00000000  00000+0  00000-0 0  9991
2 10623  66.0000 279.0000 0000000   0.0000 109.8000 14.82958855    18
KUIPER_L_00009032-05
1 10624U 24976ND  26075.69964120  .00000000  00000+0  00000-0 0  9997
2 10624  66.0000 279.0000 0000000   0.0000 127.8000 14.82958855    19
KUIPER_L_00009032-06
1 10625U 23394TJ  26075.69964120  .00000000  00000+0  00000-0 0  9991
2 10625  66.0000 279.0000 0000000   0.0000 145.8000 14.82958855    10
KUIPER_L_00009032-07
1 10626U 22594UZ  26075.69964120  .00000000  00000+0  00000-0 0  9993
2 10626  66.0000 279.0000 0000000   0.0000 163.8000 14.82958855    11
KUIPER_L_00009032-08
1 10627U 23916TO  26075.69964120  .00000000  00000+0  00000-0 0  9993
2 10627  66.0000 279.0000 0000000   0.0000 181.8000 14.82958855    12
KUIPER_L_00009032-09
1 10628U 25172IE  26075.69964120  .00000000  00000+0  00000-0 0  9990
2 10628  66.0000 279.0000 0000000   0.0000 199.8000 14.82958855    12
KUIPER_L_00009032-10
1 10629U 23989AN  26075.69964120  .00000000  00000+0  00000-0 0  9995
2 10629  66.0000 279.0000 0000000   0.0000 217.8000 14.82958855    14
KUIPER_L_00009032-11
1 10630U 24543JB  26075.69964120  .00000000  00000+0  00000-0 0  9994
2 10630  66.0000 279.0000 0000000   0.0000 235.8000 14.82958855    16
KUIPER_L_00009032-12
1 10631U 22922JA  26075.69964120  .00000000  00000+0  00000-0 0  9994
2 10631  66.0000 279.0000 0000000   0.0000 253.8000 14.82958855    17
KUIPER_L_00009032-13
1 10632U 23060IH  26075.69964120  .00000000  00000+0  00000-0 0  9999
2 10632  66.0000 279.0000 0000000   0.0000 271.8000 14.82958855    18
KUIPER_L_00009032-14
1 10633U 24119LA  26075.69964120  .00000000  00000+0  00000-0 0  9996
2 10633  66.0000 279.0000 0000000   0.0000 289.8000 14.82958855    18
KUIPER_L_00009032-15
1 10634U 24945RS  26075.69964120  .00000000  00000+0  00000-0 0  9994
2 10634  66.0000 279.0000 0000000   0.0000 307.8000 14.82958855    10
KUIPER_L_00009032-16
1 10635U 25649M   26075.69964120  .00000000  00000+0  00000-0 0  9997
2 10635  66.0000 279.0000 0000000   0.0000 325.8000 14.82958855    11
KUIPER_L_00009032-17
1 10636U 22937UQ  26075.69964120  .00000000  00000+0  00000-0 0  9995
2 10636  66.0000 279.0000 0000000   0.0000 343.8000 14.82958855    12
KUIPER_L_00009032-18
1 10637U 24864DL  26075.69964120  .00000000  00000+0  00000-0 0  9997
2 10637  66.0000 279.0000 0000000   0.0000   1.8000 14.82958855    14
KUIPER_L_00009032-19
1 10638U 22405ZN  26075.69964120  .00000000  00000+0  00000-0 0  9997
2 10638  66.0000 279.0000 0000000   0.0000  19.8000 14.82958855    14
KUIPER_L_00009032-20
1 10639U 23529QF  26075.69964120  .00000000  00000+0  00000-0 0  9996
2 10639  66.0000 279.0000 0000000   0.0000  37.8000 14.82958855    15
KUIPER_L_00009033-01
1 10640U 25608BJ  26075.69964120  .00000000  00000+0  00000-0 0  9998
2 10640  66.0000 288.0000 0000000   0.0000  57.6000 14.82958855    17
KUIPER_L_00009033-02
1 10641U 25730UO  26075.69964120  .00000000  00000+0  00000-0 0  9995
2 10641  66.0000 288.0000 0000000   0.0000  75.6000 14.82958855    18
KUIPER_L_00009033-03
1 10642U 25748MV  26075.69964120  .00000000  00000+0  00000-0 0  9995
2 10642  66.0000 288.0000 0000000   0.0000  93.6000 14.82958855    19
KUIPER_L_00009033-04
1 10643U 22524EB  26075.69964120  .00000000  00000+0  00000-0 0  9995
2 10643  66.0000 288.0000 0000000   0.0000 111.6000 14.82958855    11
KUIPER_L_00009033-05
1 10644U 22494SY  26075.69964120  .00000000  00000+0  00000-0 0  9992
2 10644  66.0000 288.0000 0000000   0.0000 129.6000 14.82958855    11
KUIPER_L_00009033-06
1 10645U 23455UF  26075.69964120  .00000000  00000+0  00000-0 0  9991
2 10645  66.0000 288.0000 0000000   0.0000 147.6000 14.82958855    12
KUIPER_L_00009033-07
1 10646U 25470CU  26075.69964120  .00000000  00000+0  00000-0 0  9991
2 10646  66.0000 288.0000 0000000   0.0000 165.6000 14.82958855    13
KUIPER_L_00009033-08
1 10647U 26729QA  26075.69964120  .00000000  00000+0  00000-0 0  9990
2 10647  66.0000 288.0000 0000000   0.0000 183.6000 14.82958855    14
KUIPER_L_00009033-09
1 10648U 23889VQ  26075.69964120  .00000000  00000+0  00000-0 0  9995
2 10648  66.0000 288.0000 0000000   0.0000 201.6000 14.82958855    16
KUIPER_L_00009033-10
1 10649U 24841CG  26075.69964120  .00000000  00000+0  00000-0 0  9995
2 10649  66.0000 288.0000 0000000   0.0000 219.6000 14.82958855    16
KUIPER_L_00009033-11
1 10650U 24426KB  26075.69964120  .00000000  00000+0  00000-0 0  9996
2 10650  66.0000 288.0000 0000000   0.0000 237.6000 14.82958855    18
KUIPER_L_00009033-12
1 10651U 26162UU  26075.69964120  .00000000  00000+0  00000-0 0  9996
2 10651  66.0000 288.0000 0000000   0.0000 255.6000 14.82958855    19
KUIPER_L_00009033-13
1 10652U 26431LS  26075.69964120  .00000000  00000+0  00000-0 0  9996
2 10652  66.0000 288.0000 0000000   0.0000 273.6000 14.82958855    10
KUIPER_L_00009033-14
1 10653U 25027FK  26075.69964120  .00000000  00000+0  00000-0 0  9997
2 10653  66.0000 288.0000 0000000   0.0000 291.6000 14.82958855    11
KUIPER_L_00009033-15
1 10654U 23724QL  26075.69964120  .00000000  00000+0  00000-0 0  9990
2 10654  66.0000 288.0000 0000000   0.0000 309.6000 14.82958855    12
KUIPER_L_00009033-16
1 10655U 22005ZO  26075.69964120  .00000000  00000+0  00000-0 0  9992
2 10655  66.0000 288.0000 0000000   0.0000 327.6000 14.82958855    13
KUIPER_L_00009033-17
1 10656U 24408JD  26075.69964120  .00000000  00000+0  00000-0 0  9992
2 10656  66.0000 288.0000 0000000   0.0000 345.6000 14.82958855    14
KUIPER_L_00009033-18
1 10657U 22195TG  26075.69964120  .00000000  00000+0  00000-0 0  9994
2 10657  66.0000 288.0000 0000000   0.0000   3.6000 14.82958855    16
KUIPER_L_00009033-19
1 10658U 23471OL  26075.69964120  .00000000  00000+0  00000-0 0  9993
2 10658  66.0000 288.0000 0000000   0.0000  21.6000 14.82958855    17
KUIPER_L_00009033-20
1 10659U 22297CE  26075.69964120  .00000000  00000+0  00000-0 0  9999
2 10659  66.0000 288.0000 0000000   0.0000  39.6000 14.82958855    17
KUIPER_L_00009034-01
1 10660U 25341KJ  26075.69964120  .00000000  00000+0  00000-0 0  9994
2 10660  66.0000 297.0000 0000000   0.0000  59.4000 14.82958855    19
KUIPER_L_00009034-02
1 10661U 26424XN  26075.69964120  .00000000  00000+0  00000-0 0  9998
2 10661  66.0000 297.0000 0000000   0.0000  77.4000 14.82958855    10
KUIPER_L_00009034-03
1 10662U 22590UK  26075.69964120  .00000000  00000+0  00000-0 0  9999
2 10662  66.0000 297.0000 0000000   0.0000  95.4000 14.82958855    11
KUIPER_L_00009034-04
1 10663U 25578YJ  26075.69964120  .00000000  00000+0  00000-0 0  9999
2 10663  66.0000 297.0000 0000000   0.0000 113.4000 14.82958855    13
KUIPER_L_00009034-05
1 10664U 26651JW  26075.69964120  .00000000  00000+0  00000-0 0  9993
2 10664  66.0000 297.0000 0000000   0.0000 131.4000 14.82958855    14
KUIPER_L_00009034-06
1 10665U 23633NN  26075.69964120  .00000000  00000+0  00000-0 0  9991
2 10665  66.0000 297.0000 0000000   0.0000 149.4000 14.82958855    14
KUIPER_L_00009034-07
1 10666U 23074QZ  26075.69964120  .00000000  00000+0  00000-0 0  9991
2 10666  66.0000 297.0000 0000000   0.0000 167.4000 14.82958855    15
KUIPER_L_00009034-08
1 10667U 23501CI  26075.69964120  .00000000  00000+0  00000-0 0  9997
2 10667  66.0000 297.0000 0000000   0.0000 185.4000 14.82958855    16
KUIPER_L_00009034-09
1 10668U 24100EK  26075.69964120  .00000000  00000+0  00000-0 0  9994
2 10668  66.0000 297.0000 0000000   0.0000 203.4000 14.82958855    18
KUIPER_L_00009034-10
1 10669U 22545JS  26075.69964120  .00000000  00000+0  00000-0 0  9996
2 10669  66.0000 297.0000 0000000   0.0000 221.4000 14.82958855    19
KUIPER_L_00009034-11
1 10670U 26962OT  26075.69964120  .00000000  00000+0  00000-0 0  9995
2 10670  66.0000 297.0000 0000000   0.0000 239.4000 14.82958855    10
KUIPER_L_00009034-12
1 10671U 22625GT  26075.69964120  .00000000  00000+0  00000-0 0  9998
2 10671  66.0000 297.0000 0000000   0.0000 257.4000 14.82958855    11
KUIPER_L_00009034-13
1 10672U 24444DM  26075.69964120  .00000000  00000+0  00000-0 0  9990
2 10672  66.0000 297.0000 0000000   0.0000 275.4000 14.82958855    12
KUIPER_L_00009034-14
1 10673U 23380RI  26075.69964120  .00000000  00000+0  00000-0 0  9999
2 10673  66.0000 297.0000 0000000   0.0000 293.4000 14.82958855    13
KUIPER_L_00009034-15
1 10674U 26856SX  26075.69964120  .00000000  00000+0  00000-0 0  9991
2 10674  66.0000 297.0000 0000000   0.0000 311.4000 14.82958855    15
KUIPER_L_00009034-16
1 10675U 24217DA  26075.69964120  .00000000  00000+0  00000-0 0  9991
2 10675  66.0000 297.0000 0000000   0.0000 329.4000 14.82958855    15
KUIPER_L_00009034-17
1 10676U 24516GC  26075.69964120  .00000000  00000+0  00000-0 0  9994
2 10676  66.0000 297.0000 0000000   0.0000 347.4000 14.82958855    16
KUIPER_L_00009034-18
1 10677U 25271JJ  26075.69964120  .00000000  00000+0  00000-0 0  9994
2 10677  66.0000 297.0000 0000000   0.0000   5.4000 14.82958855    18
KUIPER_L_00009034-19
1 10678U 23474NT  26075.69964120  .00000000  00000+0  00000-0 0  9998
2 10678  66.0000 297.0000 0000000   0.0000  23.4000 14.82958855    19
KUIPER_L_00009034-20
1 10679U 22219AY  26075.69964120  .00000000  00000+0  00000-0 0  9995
2 10679  66.0000 297.0000 0000000   0.0000  41.4000 14.82958855    10
KUIPER_L_00009035-01
1 10680U 25398AR  26075.69964120  .00000000  00000+0  00000-0 0  9998
2 10680  66.0000 306.0000 0000000   0.0000  61.2000 14.82958855    13
KUIPER_L_00009035-02
1 10681U 22214XA  26075.69964120  .00000000  00000+0  00000-0 0  9993
2 10681  66.0000 306.0000 0000000   0.0000  79.2000 14.82958855    13
